0 OV2-5
1 03428U 68081A   13277.59799085 -.00000317  00000-0  10000-3 0  6591
2 03428 007.7420 321.3769 0082581 288.6801 070.3409 01.01560854 74281
0 OV2-5
1 03428U 68081A   13280.55178579 -.00000289  00000-0  10000-3 0  6600
2 03428 007.7390 321.3601 0082553 288.7485 070.2639 01.01559604 74319
0 OV2-5
1 03428U 68081A   13283.50567360 -.00000227  00000-0  10000-3 0  6611
2 03428 007.7358 321.3429 0082380 288.8106 070.2136 01.01557988 74348
0 OV2-5
1 03428U 68081A   13283.50571258  .00000000  00000-0  10000-3 0  6621
2 03428 007.7359 321.3478 0082693 288.9100 070.1211 01.01554135 74349
0 OV2-5
1 03428U 68081A   13286.45956658 -.00000146  00000-0  10000-3 0  6621
2 03428 007.7324 321.3254 0082804 288.8960 070.1169 01.01556378 74376
0 OV2-5
1 03428U 68081A   13291.38272096 -.00000006  00000-0  10000-3 0  6632
2 03428 007.7266 321.2951 0082528 289.0551 069.9181 01.01554767 74422
